start=new Date('2021-12-02T00:00:00.000Z').valueOf();
sats=[{"OBJECT_NAME":"STARLINK-2420","OBJECT_TYPE":"PAYLOAD","MEAN_ELEMENT_THEORY":"SGP4","APOAPSIS":"548.144","OBJECT_ID":"2021-018AW","GP_ID":"190861436","PERIAPSIS":"546.267","RCS_SIZE":"LARGE","REV_AT_EPOCH":"4184","SEMIMAJOR_AXIS":"6925.341","FILE":"3229140","DECAY_DATE":null,"PERIOD":"95.592","MEAN_MOTION":"15.06402626","NORAD_CAT_ID":"47831","INCLINATION":"53.0550","CENTER_NAME":"EARTH","LAUNCH_DATE":"2021-03-11","TIME_SYSTEM":"UTC","CLASSIFICATION_TYPE":"U","EPHEMERIS_TYPE":"0","ECCENTRICITY":"0.00013550","ARG_OF_PERICENTER":"69.3950","BSTAR":"0.00005101300000","ELEMENT_SET_NO":"999","RA_OF_ASC_NODE":"36.2295","SITE":"AFETR","TLE_LINE1":"1 47831U 21018AW  21335.45217745  .00000479  00000-0  51013-4 0  9998","COUNTRY_CODE":"US","MEAN_ANOMALY":"290.7185","MEAN_MOTION_DDOT":"0.0000000000000","REF_FRAME":"TEME","EPOCH":"2021-12-01T10:51:08.131680","TLE_LINE2":"2 47831  53.0550  36.2295 0001355  69.3950 290.7185 15.06402626 41847","MEAN_MOTION_DOT":"0.00000479"},{"OBJECT_ID":"2021-018AX","APOAPSIS":"548.175","MEAN_ELEMENT_THEORY":"SGP4","OBJECT_TYPE":"PAYLOAD","OBJECT_NAME":"STARLINK-2422","SEMIMAJOR_AXIS":"6925.343","FILE":"3229140","DECAY_DATE":null,"PERIOD":"95.592","REV_AT_EPOCH":"4158","RCS_SIZE":"LARGE","PERIAPSIS":"546.241","GP_ID":"190859685","INCLINATION":"53.0566","MEAN_MOTION":"15.06401792","NORAD_CAT_ID":"47832","EPHEMERIS_TYPE":"0","CLASSIFICATION_TYPE":"U","TIME_SYSTEM":"UTC","LAUNCH_DATE":"2021-03-11","CENTER_NAME":"EARTH","BSTAR":"0.00014318000000","ARG_OF_PERICENTER":"70.6051","ECCENTRICITY":"0.00013960","COUNTRY_CODE":"US","TLE_LINE1":"1 47832U 21018AX  21335.47475225  .00001852  00000-0  14318-3 0  9992","SITE":"AFETR","RA_OF_ASC_NODE":"51.2093","ELEMENT_SET_NO":"999","MEAN_MOTION_DDOT":"0.0000000000000","MEAN_ANOMALY":"289.5088","MEAN_MOTION_DOT":"0.00001852","EPOCH":"2021-12-01T11:23:38.594400","TLE_LINE2":"2 47832  53.0566  51.2093 0001396  70.6051 289.5088 15.06401792 41582","REF_FRAME":"TEME"},{"LAUNCH_DATE":"2021-03-11","TIME_SYSTEM":"UTC","CLASSIFICATION_TYPE":"U","CENTER_NAME":"EARTH","EPHEMERIS_TYPE":"0","MEAN_MOTION":"15.06397360","NORAD_CAT_ID":"47833","INCLINATION":"53.0570","PERIAPSIS":"546.323","GP_ID":"190859935","RCS_SIZE":"LARGE","REV_AT_EPOCH":"4164","PERIOD":"95.592","FILE":"3229140","DECAY_DATE":null,"SEMIMAJOR_AXIS":"6925.357","OBJECT_TYPE":"PAYLOAD","MEAN_ELEMENT_THEORY":"SGP4","APOAPSIS":"548.120","OBJECT_NAME":"STARLINK-2423","OBJECT_ID":"2021-018AY","TLE_LINE2":"2 47833  53.0570  51.0943 0001297  73.1358 286.9773 15.06397360 41642","EPOCH":"2021-12-01T12:00:48.355488","REF_FRAME":"TEME","MEAN_MOTION_DOT":"-0.00001288","MEAN_MOTION_DDOT":"0.0000000000000","MEAN_ANOMALY":"286.9773","ELEMENT_SET_NO":"999","RA_OF_ASC_NODE":"51.0943","TLE_LINE1":"1 47833U 21018AY  21335.50055967 -.00001288  00000-0 -67611-4 0  9994","COUNTRY_CODE":"US","SITE":"AFETR","ECCENTRICITY":"0.00012970","ARG_OF_PERICENTER":"73.1358","BSTAR":"-0.00006761100000"},{"RCS_SIZE":"LARGE","REV_AT_EPOCH":"4126","PERIOD":"95.592","FILE":"3229353","DECAY_DATE":null,"SEMIMAJOR_AXIS":"6925.351","PERIAPSIS":"546.348","GP_ID":"190867114","OBJECT_ID":"2021-018AZ","OBJECT_TYPE":"PAYLOAD","APOAPSIS":"548.084","MEAN_ELEMENT_THEORY":"SGP4","OBJECT_NAME":"STARLINK-2424","EPHEMERIS_TYPE":"0","LAUNCH_DATE":"2021-03-11","CLASSIFICATION_TYPE":"U","TIME_SYSTEM":"UTC","CENTER_NAME":"EARTH","INCLINATION":"53.0568","MEAN_MOTION":"15.06399166","NORAD_CAT_ID":"47834","TLE_LINE1":"1 47834U 21018AZ  21335.57796070  .00000621  00000-0  60606-4 0  9994","COUNTRY_CODE":"US","SITE":"AFETR","ELEMENT_SET_NO":"999","RA_OF_ASC_NODE":"50.7427","BSTAR":"0.00006060600000","ARG_OF_PERICENTER":"75.0168","ECCENTRICITY":"0.00012530","MEAN_MOTION_DOT":"0.00000621","EPOCH":"2021-12-01T13:52:15.804480","TLE_LINE2":"2 47834  53.0568  50.7427 0001253  75.0168 285.0960 15.06399166 41267","REF_FRAME":"TEME","MEAN_MOTION_DDOT":"0.0000000000000","MEAN_ANOMALY":"285.0960"},{"REV_AT_EPOCH":"4119","RCS_SIZE":"LARGE","FILE":"3229188","PERIOD":"95.593","DECAY_DATE":null,"SEMIMAJOR_AXIS":"6925.398","PERIAPSIS":"546.558","GP_ID":"190863282","OBJECT_ID":"2021-018BA","OBJECT_TYPE":"PAYLOAD","MEAN_ELEMENT_THEORY":"SGP4","APOAPSIS":"547.968","OBJECT_NAME":"STARLINK-2425","EPHEMERIS_TYPE":"0","LAUNCH_DATE":"2021-03-11","CLASSIFICATION_TYPE":"U","TIME_SYSTEM":"UTC","CENTER_NAME":"EARTH","INCLINATION":"53.0538","MEAN_MOTION":"15.06383831","NORAD_CAT_ID":"47835","TLE_LINE1":"1 47835U 21018BA  21335.59315401 -.00001283  00000-0 -67317-4 0  9995","COUNTRY_CODE":"US","SITE":"AFETR","RA_OF_ASC_NODE":"55.6961","ELEMENT_SET_NO":"999","BSTAR":"-0.00006731700000","ARG_OF_PERICENTER":"63.1137","ECCENTRICITY":"0.00010180","MEAN_MOTION_DOT":"-0.00001283","TLE_LINE2":"2 47835  53.0538  55.6961 0001018  63.1137 296.9956 15.06383831 41195","EPOCH":"2021-12-01T14:14:08.506464","REF_FRAME":"TEME","MEAN_MOTION_DDOT":"0.0000000000000","MEAN_ANOMALY":"296.9956"},{"BSTAR":"0.00003491700000","ARG_OF_PERICENTER":"61.6588","ECCENTRICITY":"0.00013970","TLE_LINE1":"1 47836U 21018BB  21335.58807427  .00000239  00000-0  34917-4 0  9997","COUNTRY_CODE":"US","SITE":"AFETR","RA_OF_ASC_NODE":"50.6863","ELEMENT_SET_NO":"999","MEAN_MOTION_DDOT":"0.0000000000000","MEAN_ANOMALY":"298.4542","MEAN_MOTION_DOT":"0.00000239","EPOCH":"2021-12-01T14:06:49.616928","TLE_LINE2":"2 47836  53.0580  50.6863 0001397  61.6588 298.4542 15.06398771 41267","REF_FRAME":"TEME","OBJECT_ID":"2021-018BB","OBJECT_TYPE":"PAYLOAD","MEAN_ELEMENT_THEORY":"SGP4","APOAPSIS":"548.185","OBJECT_NAME":"STARLINK-2426","REV_AT_EPOCH":"4126","RCS_SIZE":"LARGE","FILE":"3229266","DECAY_DATE":null,"PERIOD":"95.592","SEMIMAJOR_AXIS":"6925.352","PERIAPSIS":"546.250","GP_ID":"190865151","INCLINATION":"53.0580","MEAN_MOTION":"15.06398771","NORAD_CAT_ID":"47836","EPHEMERIS_TYPE":"0","LAUNCH_DATE":"2021-03-11","CLASSIFICATION_TYPE":"U","TIME_SYSTEM":"UTC","CENTER_NAME":"EARTH"},{"INCLINATION":"53.0563","MEAN_MOTION":"15.06402900","NORAD_CAT_ID":"47837","EPHEMERIS_TYPE":"0","CENTER_NAME":"EARTH","CLASSIFICATION_TYPE":"U","TIME_SYSTEM":"UTC","LAUNCH_DATE":"2021-03-11","OBJECT_ID":"2021-018BC","OBJECT_NAME":"STARLINK-2427","APOAPSIS":"548.066","MEAN_ELEMENT_THEORY":"SGP4","OBJECT_TYPE":"PAYLOAD","FILE":"3229140","DECAY_DATE":null,"PERIOD":"95.592","SEMIMAJOR_AXIS":"6925.340","RCS_SIZE":"LARGE","REV_AT_EPOCH":"4188","GP_ID":"190860435","PERIAPSIS":"546.343","MEAN_ANOMALY":"299.6731","MEAN_MOTION_DDOT":"0.0000000000000","MEAN_MOTION_DOT":"0.00000927","REF_FRAME":"TEME","TLE_LINE2":"2 47837  53.0563  30.9234 0001244  60.4382 299.6731 15.06402900 41883","EPOCH":"2021-12-01T12:56:32.047584","BSTAR":"0.00008108800000","ARG_OF_PERICENTER":"60.4382","ECCENTRICITY":"0.00012440","SITE":"AFETR","COUNTRY_CODE":"US","TLE_LINE1":"1 47837U 21018BC  21335.53925981  .00000927  00000-0  81088-4 0  9994","ELEMENT_SET_NO":"999","RA_OF_ASC_NODE":"30.9234"},{"EPHEMERIS_TYPE":"0","LAUNCH_DATE":"2021-03-11","TIME_SYSTEM":"UTC","CLASSIFICATION_TYPE":"U","CENTER_NAME":"EARTH","INCLINATION":"53.0560","MEAN_MOTION":"15.06391979","NORAD_CAT_ID":"47838","REV_AT_EPOCH":"4158","RCS_SIZE":"LARGE","FILE":"3229140","DECAY_DATE":null,"PERIOD":"95.593","SEMIMAJOR_AXIS":"6925.373","PERIAPSIS":"546.399","GP_ID":"190861186","OBJECT_ID":"2021-018BD","OBJECT_TYPE":"PAYLOAD","MEAN_ELEMENT_THEORY":"SGP4","APOAPSIS":"548.077","OBJECT_NAME":"STARLINK-2429","MEAN_MOTION_DOT":"0.00000484","EPOCH":"2021-12-01T11:39:34.390080","TLE_LINE2":"2 47838  53.0560  51.1605 0001211  65.9569 294.1546 15.06391979 41583","REF_FRAME":"TEME","MEAN_MOTION_DDOT":"0.0000000000000","MEAN_ANOMALY":"294.1546","TLE_LINE1":"1 47838U 21018BD  21335.48581470  .00000484  00000-0  51370-4 0  9999","COUNTRY_CODE":"US","SITE":"AFETR","RA_OF_ASC_NODE":"51.1605","ELEMENT_SET_NO":"999","BSTAR":"0.00005137000000","ARG_OF_PERICENTER":"65.9569","ECCENTRICITY":"0.00012110"},{"MEAN_ANOMALY":"309.6481","MEAN_MOTION_DDOT":"0.0000000000000","REF_FRAME":"TEME","EPOCH":"2021-12-01T12:20:43.155168","TLE_LINE2":"2 47839  53.0534  21.0268 0002096  50.4693 309.6481 15.06391799 42025","MEAN_MOTION_DOT":"-0.00001793","ARG_OF_PERICENTER":"50.4693","ECCENTRICITY":"0.00020960","BSTAR":"-0.00010151000000","RA_OF_ASC_NODE":"21.0268","ELEMENT_SET_NO":"999","SITE":"AFETR","COUNTRY_CODE":"US","TLE_LINE1":"1 47839U 21018BE  21335.51438837 -.00001793  00000-0 -10151-3 0  9999","NORAD_CAT_ID":"47839","MEAN_MOTION":"15.06391799","INCLINATION":"53.0534","CENTER_NAME":"EARTH","TIME_SYSTEM":"UTC","CLASSIFICATION_TYPE":"U","LAUNCH_DATE":"2021-03-11","EPHEMERIS_TYPE":"0","OBJECT_NAME":"STARLINK-2431","MEAN_ELEMENT_THEORY":"SGP4","APOAPSIS":"548.690","OBJECT_TYPE":"PAYLOAD","OBJECT_ID":"2021-018BE","GP_ID":"190861437","PERIAPSIS":"545.787","SEMIMAJOR_AXIS":"6925.374","FILE":"3229140","DECAY_DATE":null,"PERIOD":"95.593","RCS_SIZE":"LARGE","REV_AT_EPOCH":"4202"},{"OBJECT_ID":"2021-018BF","APOAPSIS":"548.486","MEAN_ELEMENT_THEORY":"SGP4","OBJECT_TYPE":"PAYLOAD","OBJECT_NAME":"STARLINK-2432","DECAY_DATE":null,"FILE":"3229266","PERIOD":"95.593","SEMIMAJOR_AXIS":"6925.376","REV_AT_EPOCH":"4153","RCS_SIZE":"LARGE","PERIAPSIS":"545.996","GP_ID":"190865150","INCLINATION":"53.0569","NORAD_CAT_ID":"47840","MEAN_MOTION":"15.06391120","EPHEMERIS_TYPE":"0","TIME_SYSTEM":"UTC","CLASSIFICATION_TYPE":"U","LAUNCH_DATE":"2021-03-11","CENTER_NAME":"EARTH","BSTAR":"-0.00009955800000","ARG_OF_PERICENTER":"58.2263","ECCENTRICITY":"0.00017980","COUNTRY_CODE":"US","TLE_LINE1":"1 47840U 21018BF  21335.52452513 -.00001764  00000-0 -99558-4 0  9996","SITE":"AFETR","ELEMENT_SET_NO":"999","RA_OF_ASC_NODE":"30.9774","MEAN_MOTION_DDOT":"0.0000000000000","MEAN_ANOMALY":"301.8901","MEAN_MOTION_DOT":"-0.00001764","TLE_LINE2":"2 47840  53.0569  30.9774 0001798  58.2263 301.8901 15.06391120 41537","EPOCH":"2021-12-01T12:35:18.971232","REF_FRAME":"TEME"}];
